NUSAT-48 (HENRIETTA LE*)
1 60498U 24149AG  26068.80506098  .00012988  00000+0  45212-3 0  9999
2 60498  97.3923 150.8264 0002754 263.3026  96.7901 15.29812597 86946
STARLINK-35454          
1 66236U 25245C   26068.88367264  .00025543  00000+0  87154-3 0  9993
2 66236  53.1571 283.1826 0001160  89.5860 270.5273 15.30201576 21123
